ONEWEB-0118             
1 47264U 20100G   23307.55491328  .00000360  00000+0  96606-3 0  9996
2 47264  87.9046 180.8792 0001712  98.9004 261.2318 13.12445737139244
ONEWEB-0119             
1 47265U 20100H   23307.58244329  .00000114  00000+0  28069-3 0  9992
2 47265  87.9045 180.9110 0001487  72.0815 288.0475 13.12440771139223
ONEWEB-0120             
1 47266U 20100J   23307.61315040 -.00000306  00000+0 -88670-3 0  9995
2 47266  87.9048 180.8948 0001572  84.2540 275.8768 13.12443211139254
ONEWEB-0121             
1 47267U 20100K   23307.59514252 -.00000257  00000+0 -74872-3 0  9993
2 47267  87.9043 180.8980 0001626  70.4046 289.7258 13.12441332139164
ONEWEB-0122             
1 47268U 20100L   23307.58879407 -.00000163  00000+0 -48722-3 0  9990
2 47268  87.9043 180.9028 0001571  71.8797 288.2502 13.12441609139079
ONEWEB-0123             
1 47269U 20100M   23307.73703865 -.00008971  00000+0 -24979-1 0  9993
2 47269  87.9046 180.8796 0001419  63.3759 296.7514 13.12488149139234
ONEWEB-0124             
1 47270U 20100N   23307.57186357  .00000334  00000+0  89333-3 0  9998
2 47270  87.9042 180.9082 0001590  65.8685 294.2610 13.12440034139091
ONEWEB-0125             
1 47271U 20100P   23307.39609576  .00001116  00000+0  30653-2 0  9991
2 47271  87.8982 180.9212 0002046  78.8309 281.3049 13.12438621139130
